NORAD_CAT_ID,OBJECT_NAME,OBJECT_TYPE,EPOCH,MEAN_MOTION,ECCENTRICITY,INCLINATION,RA_OF_ASC_NODE,ARG_OF_PERICENTER,MEAN_ANOMALY,BSTAR,MEAN_MOTION_DOT,MEAN_MOTION_DDOT,TLE_LINE0,TLE_LINE1,TLE_LINE2,SEMIMAJOR_AXIS,PERIOD,APOGEE,PERIGEE,DECAYED
55432.0,STARLINK-5637,PAYLOAD,2023-05-30 10:18:38,14.9832847,0.0003476,69.9984,141.714,267.718,92.3581,-2.7923e-05,-4.26e-06,0.0,0 STARLINK-5637,1 55432U 23014AT  23150.42961310 -.00000426  00000-0 -27923-4 0  9997,2 55432  69.9984 141.7140 0003476 267.7180  92.3581 14.98328470 18200,6950.198,96.107,574.479,569.647,0.0
55432.0,STARLINK-5637,PAYLOAD,2023-05-31 08:44:31,14.98332173,0.0003495,69.9985,139.3577,267.757,92.3189,2.0468e-05,1.51e-06,0.0,0 STARLINK-5637,1 55432U 23014AT  23151.36424873  .00000151  00000-0  20468-4 0  9999,2 55432  69.9985 139.3577 0003495 267.7570  92.3189 14.98332173 19280,6950.186,96.107,574.48,569.622,0.0
55432.0,STARLINK-5637,PAYLOAD,2023-05-31 16:45:11,14.98329815,0.0003523,69.9984,138.516,268.3874,91.6881,5.934e-06,-2.2e-07,0.0,0 STARLINK-5637,1 55432U 23014AT  23151.69805015 -.00000022  00000-0  59340-5 0  9996,2 55432  69.9984 138.5160 0003523 268.3874  91.6881 14.98329815 18395,6950.193,96.107,574.507,569.61,0.0
55432.0,STARLINK-5637,PAYLOAD,2023-06-01 08:46:32,14.98330309,0.0003521,69.9982,136.8327,268.2337,91.8418,3.4465e-05,3.18e-06,0.0,0 STARLINK-5637,1 55432U 23014AT  23152.36564899  .00000318  00000-0  34465-4 0  9990,2 55432  69.9982 136.8327 0003521 268.2337  91.8418 14.98330309 19434,6950.192,96.107,574.504,569.61,0.0
55432.0,STARLINK-5637,PAYLOAD,2023-06-02 02:24:00,14.98330904,0.0003491,69.9982,134.9808,267.7882,92.2877,-1.2594e-05,-2.43e-06,0.0,0 STARLINK-5637,1 55432U 23014AT  23153.10000948 -.00000243  00000-0 -12594-4 0  9991,2 55432  69.9982 134.9808 0003491 267.7882  92.2877 14.98330904 18605,6950.19,96.107,574.481,569.629,0.0
55432.0,STARLINK-5637,PAYLOAD,2023-06-02 08:48:32,14.9833228,0.0003489,69.9983,134.3078,268.4513,91.6247,2.7637e-06,-6e-07,0.0,0 STARLINK-5637,1 55432U 23014AT  23153.36704796 -.00000060  00000-0  27637-5 0  9992,2 55432  69.9983 134.3078 0003489 268.4513  91.6247 14.98332280 19586,6950.186,96.107,574.476,569.626,0.0
55432.0,STARLINK-5637,PAYLOAD,2023-06-02 21:37:37,14.9832957,0.0003419,69.9984,132.9612,268.8396,91.2371,-1.068e-05,-2.21e-06,0.0,0 STARLINK-5637,1 55432U 23014AT  23153.90112991 -.00000221  00000-0 -10680-4 0  9991,2 55432  69.9984 132.9612 0003419 268.8396  91.2371 14.98329570 19662,6950.194,96.107,574.435,569.683,0.0
55432.0,STARLINK-5637,PAYLOAD,2023-06-03 02:26:01,14.9832898,0.0003424,69.9984,132.4562,268.7558,91.3209,-1.6002e-05,-2.84e-06,0.0,0 STARLINK-5637,1 55432U 23014AT  23154.10141039 -.00000284  00000-0 -16002-4 0  9992,2 55432  69.9984 132.4562 0003424 268.7558  91.3209 14.98328980 18750,6950.196,96.107,574.441,569.681,0.0
55432.0,STARLINK-5637,PAYLOAD,2023-06-03 08:50:33,14.98330316,0.0003388,69.9986,131.7829,269.146,90.9311,1.2987e-05,6.2e-07,0.0,0 STARLINK-5637,1 55432U 23014AT  23154.36844878  .00000062  00000-0  12987-4 0  9991,2 55432  69.9986 131.7829 0003388 269.1460  90.9311 14.98330316 19730,6950.192,96.107,574.412,569.702,0.0
55432.0,STARLINK-5637,PAYLOAD,2023-06-03 21:39:38,14.98329452,0.0003368,69.9988,130.4363,269.1009,90.9764,-7.2176e-06,-1.79e-06,0.0,0 STARLINK-5637,1 55432U 23014AT  23154.90252974 -.00000179  00000-0 -72176-5 0  9999,2 55432  69.9988 130.4363 0003368 269.1009  90.9764 14.98329452 19818,6950.195,96.107,574.4,569.719,0.0
55432.0,STARLINK-5637,PAYLOAD,2023-06-04 02:28:02,14.98329314,0.0003372,69.9988,129.9314,269.0205,91.0567,-7.9702e-06,-1.88e-06,0.0,0 STARLINK-5637,1 55432U 23014AT  23155.10280981 -.00000188  00000-0 -79702-5 0  9993,2 55432  69.9988 129.9314 0003372 269.0205  91.0567 14.98329314 18908,6950.195,96.107,574.404,569.716,0.0
55432.0,STARLINK-5637,PAYLOAD,2023-06-04 08:52:34,14.98330742,0.0003319,69.9989,129.2583,268.6093,91.4686,1.5881e-05,9.6e-07,0.0,0 STARLINK-5637,1 55432U 23014AT  23155.36984816  .00000096  00000-0  15881-4 0  9992,2 55432  69.9989 129.2583 0003319 268.6093  91.4686 14.98330742 19882,6950.191,96.107,574.362,569.749,0.0
55432.0,STARLINK-5637,PAYLOAD,2023-06-04 21:41:39,14.98329137,0.0003288,69.999,127.9117,268.4608,91.6174,8.8586e-07,-8.2e-07,0.0,0 STARLINK-5637,1 55432U 23014AT  23155.90392957 -.00000082  00000-0  88586-6 0  9991,2 55432  69.9990 127.9117 0003288 268.4608  91.6174 14.98329137 19966,6950.196,96.107,574.346,569.775,0.0
55432.0,STARLINK-5637,PAYLOAD,2023-06-05 04:06:11,14.98329079,0.0003293,69.9989,127.2383,268.4102,91.6679,4.1263e-07,-8.8e-07,0.0,0 STARLINK-5637,1 55432U 23014AT  23156.17096962 -.00000088  00000-0  41263-6 0  9995,2 55432  69.9989 127.2383 0003293 268.4102  91.6679 14.98329079 19063,6950.196,96.107,574.349,569.772,0.0
55432.0,STARLINK-5637,PAYLOAD,2023-06-05 08:54:35,14.98330479,0.0003277,69.9989,126.7333,268.9584,91.1199,1.511e-05,8.7e-07,0.0,0 STARLINK-5637,1 55432U 23014AT  23156.37124833  .00000087  00000-0  15110-4 0  9994,2 55432  69.9989 126.7333 0003277 268.9584  91.1199 14.98330479 20030,6950.191,96.107,574.334,569.779,0.0
55432.0,STARLINK-5637,PAYLOAD,2023-06-05 21:43:40,14.98328091,0.0003256,69.999,125.3867,269.3891,90.6895,-1.8621e-05,-3.15e-06,0.0,0 STARLINK-5637,1 55432U 23014AT  23156.90533087 -.00000315  00000-0 -18621-4 0  9994,2 55432  69.9990 125.3867 0003256 269.3891  90.6895 14.98328091 20115,6950.199,96.107,574.327,569.801,0.0
55432.0,STARLINK-5637,PAYLOAD,2023-06-06 07:20:28,14.983301,0.0003239,69.9989,124.3768,269.3367,90.7421,6.9155e-06,-1.1e-07,0.0,0 STARLINK-5637,1 55432U 23014AT  23157.30588901 -.00000011  00000-0  69155-5 0  9995,2 55432  69.9989 124.3768 0003239 269.3367  90.7421 14.98330100 19232,6950.193,96.107,574.309,569.806,0.0
55432.0,STARLINK-5637,PAYLOAD,2023-06-07 07:22:29,14.98332598,0.0003255,69.999,121.8519,269.7826,90.296,3.2134e-05,2.9e-06,0.0,0 STARLINK-5637,1 55432U 23014AT  23158.30728621  .00000290  00000-0  32134-4 0  9995,2 55432  69.9990 121.8519 0003255 269.7826  90.2960 14.98332598 19384,6950.185,96.107,574.312,569.788,0.0
55432.0,STARLINK-5637,PAYLOAD,2023-06-07 21:47:42,14.98328084,0.0003214,69.9991,120.337,269.6078,90.4713,2.3841e-06,-6.5e-07,0.0,0 STARLINK-5637,1 55432U 23014AT  23158.90812963 -.00000065  00000-0  23841-5 0  9991,2 55432  69.9991 120.3370 0003214 269.6078  90.4713 14.98328084 20416,6950.199,96.107,574.298,569.83,0.0
55432.0,STARLINK-5637,PAYLOAD,2023-06-08 07:24:30,14.98332566,0.0003171,69.9992,119.3267,268.8848,91.1947,3.0067e-05,2.66e-06,0.0,0 STARLINK-5637,1 55432U 23014AT  23159.30868583  .00000266  00000-0  30067-4 0  9994,2 55432  69.9992 119.3267 0003171 268.8848  91.1947 14.98332566 19536,6950.185,96.107,574.254,569.846,0.0
55432.0,STARLINK-5637,PAYLOAD,2023-06-09 07:26:31,14.98332398,0.0003082,69.9994,116.8019,268.7754,91.3051,1.4098e-05,7.5e-07,0.0,0 STARLINK-5637,1 55432U 23014AT  23160.31008590  .00000075  00000-0  14098-4 0  9995,2 55432  69.9994 116.8019 0003082 268.7754  91.3051 14.98332398 19688,6950.185,96.107,574.193,569.908,0.0
55432.0,STARLINK-5637,PAYLOAD,2023-06-09 13:51:03,14.98328668,0.0003054,69.9995,116.1286,268.9819,91.099,-1.4759e-05,-2.69e-06,0.0,0 STARLINK-5637,1 55432U 23014AT  23160.57712888 -.00000269  00000-0 -14759-4 0  9996,2 55432  69.9995 116.1286 0003054 268.9819  91.0990 14.98328668 20665,6950.197,96.107,574.185,569.939,0.0
55432.0,STARLINK-5637,PAYLOAD,2023-06-10 07:28:32,14.98329773,0.0002981,69.9996,114.2773,267.7661,92.3156,-6.3582e-06,-1.69e-06,0.0,0 STARLINK-5637,1 55432U 23014AT  23161.31148844 -.00000169  00000-0 -63582-5 0  9992,2 55432  69.9996 114.2773 0002981 267.7661  92.3156 14.98329773 19839,6950.194,96.107,574.13,569.987,0.0
55432.0,STARLINK-5637,PAYLOAD,2023-06-10 13:53:04,14.9832873,0.0002967,69.9998,113.604,268.6515,91.4304,6.2892e-07,-8.5e-07,0.0,0 STARLINK-5637,1 55432U 23014AT  23161.57852904 -.00000085  00000-0  62892-6 0  9999,2 55432  69.9998 113.6040 0002967 268.6515  91.4304 14.98328730 20810,6950.197,96.107,574.124,570.0,0.0
55432.0,STARLINK-5637,PAYLOAD,2023-06-10 20:17:37,14.98330103,0.0002963,69.9997,112.9305,269.8434,90.2385,7.5414e-06,-3e-08,0.0,0 STARLINK-5637,1 55432U 23014AT  23161.84556818 -.00000003  00000-0  75414-5 0  9997,2 55432  69.9997 112.9305 0002963 269.8434  90.2385 14.98330103 20851,6950.193,96.107,574.117,569.998,0.0
55432.0,STARLINK-5637,PAYLOAD,2023-06-11 07:30:33,14.98331855,0.0002956,69.9998,111.7524,269.0054,91.0767,2.727e-05,2.32e-06,0.0,0 STARLINK-5637,1 55432U 23014AT  23162.31288608  .00000232  00000-0  27270-4 0  9998,2 55432  69.9998 111.7524 0002956 269.0054  91.0767 14.98331855 19984,6950.187,96.107,574.107,569.998,0.0
55432.0,STARLINK-5637,PAYLOAD,2023-06-11 13:55:05,14.98329048,0.0002954,69.9998,111.0791,269.0412,91.0408,1.4257e-06,-7.6e-07,0.0,0 STARLINK-5637,1 55432U 23014AT  23162.57992843 -.00000076  00000-0  14257-5 0  9998,2 55432  69.9998 111.0791 0002954 269.0412  91.0408 14.98329048 20962,6950.196,96.107,574.114,570.008,0.0
55432.0,STARLINK-5637,PAYLOAD,2023-06-12 05:56:26,14.9833146,0.0002989,69.9998,109.396,269.2633,90.8183,3.6686e-05,3.45e-06,0.0,0 STARLINK-5637,1 55432U 23014AT  23163.24752562  .00000345  00000-0  36686-4 0  9992,2 55432  69.9998 109.3960 0002989 269.2633  90.8183 14.98331460 21065,6950.188,96.107,574.131,569.976,0.0
55432.0,STARLINK-5637,PAYLOAD,2023-06-12 13:57:06,14.98332657,0.0003126,69.9997,108.5538,271.6234,88.4567,-2.8269e-05,-4.3e-06,0.0,0 STARLINK-5637,1 55432U 23014AT  23163.58132582 -.00000430  00000-0 -28269-4 0  9998,2 55432  69.9997 108.5538 0003126 271.6234  88.4567 14.98332657 20173,6950.185,96.107,574.222,569.877,0.0
55432.0,STARLINK-5637,PAYLOAD,2023-06-13 05:58:27,14.98328859,0.0002977,69.9998,106.8707,269.3907,90.6911,-2.5665e-05,-3.99e-06,0.0,0 STARLINK-5637,1 55432U 23014AT  23164.24892842 -.00000399  00000-0 -25665-4 0  9995,2 55432  69.9998 106.8707 0002977 269.3907  90.6911 14.98328859 21210,6950.196,96.107,574.13,569.992,0.0
